STARLINK-1559           
1 46077U 20055BC  26068.23360559  .00042685  00000+0  14779-2 0  9995
2 46077  53.0254  76.0659 0004229  33.9710 326.1559 15.29461733309518
STARLINK-34347          
1 64226U 25117Z   26068.29564248  .00026074  00000+0  88940-3 0  9998
2 64226  53.1608  41.5509 0001184 103.8437 256.2696 15.30199182 44462
